{
  "norad_id": 68884,
  "name": "KUIPER-00503",
  "history": [
    {
      "epoch": "2026-05-02T10:00:03.000096Z",
      "apogee_km": 462.02818681280223,
      "perigee_km": 450.59278927580635,
      "latitude_deg": 32.99921786234199,
      "longitude_deg": -117.0720319630336,
      "height_km": 452.76584714969135,
      "semi_major_axis_km": 6834.447488044304,
      "eccentricity": 0.0008366,
      "inclination_deg": 51.8748,
      "raan_deg": 103.7277,
      "arg_perigee_deg": 125.4425,
      "mean_anomaly_deg": 10.8848,
      "mean_motion_rev_day": 15.36553356
    }
  ]
}