{"fetched_at":"2026-05-03T06:27:58Z","count":17151,"tles":[{"name":"KUIPER-00503","line1":"1 68884U 26095W   26122.41670139  .00068637  00000+0  18860-2 0  9994","line2":"2 68884  51.8748 103.7277 0008366 125.4425  10.8848 15.36553356  1307","category":"Other"}]}